[{"OBJECT_NAME":"STARLINK-36906","OBJECT_ID":"2026-040X","EPOCH":"2026-03-15T06:00:00.999648","MEAN_MOTION":15.92815929,"ECCENTRICITY":0.00014141,"INCLINATION":97.2763,"RA_OF_ASC_NODE":22.9274,"ARG_OF_PERICENTER":105.0518,"MEAN_ANOMALY":34.4658,"EPHEMERIS_TYPE":0,"CLASSIFICATION_TYPE":"U","NORAD_CAT_ID":68036,"ELEMENT_SET_NO":999,"REV_AT_EPOCH":331,"BSTAR":-0.0045769281,"MEAN_MOTION_DOT":-0.01560731,"MEAN_MOTION_DDOT":0.00069222719},{"OBJECT_NAME":"STARLINK-36388","OBJECT_ID":"2026-040Y","EPOCH":"2026-03-15T06:00:00.999648","MEAN_MOTION":15.92898252,"ECCENTRICITY":0.00014233,"INCLINATION":97.2777,"RA_OF_ASC_NODE":22.9319,"ARG_OF_PERICENTER":107.5486,"MEAN_ANOMALY":41.0142,"EPHEMERIS_TYPE":0,"CLASSIFICATION_TYPE":"U","NORAD_CAT_ID":68037,"ELEMENT_SET_NO":999,"REV_AT_EPOCH":327,"BSTAR":-0.0045941548,"MEAN_MOTION_DOT":-0.01573165,"MEAN_MOTION_DDOT":0.00070307326},{"OBJECT_NAME":"STARLINK-36895","OBJECT_ID":"2026-040Z","EPOCH":"2026-03-15T06:00:00.999648","MEAN_MOTION":15.92764948,"ECCENTRICITY":0.00013403,"INCLINATION":97.2747,"RA_OF_ASC_NODE":22.9243,"ARG_OF_PERICENTER":108.4634,"MEAN_ANOMALY":26.8693,"EPHEMERIS_TYPE":0,"CLASSIFICATION_TYPE":"U","NORAD_CAT_ID":68038,"ELEMENT_SET_NO":999,"REV_AT_EPOCH":331,"BSTAR":-0.0045693486,"MEAN_MOTION_DOT":-0.01554095,"MEAN_MOTION_DDOT":0.00068642635},{"OBJECT_NAME":"STARLINK-36373","OBJECT_ID":"2026-040AA","EPOCH":"2026-03-15T06:00:00.999648","MEAN_MOTION":15.92737745,"ECCENTRICITY":0.00013268,"INCLINATION":97.2745,"RA_OF_ASC_NODE":22.9228,"ARG_OF_PERICENTER":104.0972,"MEAN_ANOMALY":26.5463,"EPHEMERIS_TYPE":0,"CLASSIFICATION_TYPE":"U","NORAD_CAT_ID":68039,"ELEMENT_SET_NO":999,"REV_AT_EPOCH":327,"BSTAR":-0.0045583558,"MEAN_MOTION_DOT":-0.01548238,"MEAN_MOTION_DDOT":0.00068145248},{"OBJECT_NAME":"STARLINK-36711","OBJECT_ID":"2026-041A","EPOCH":"2026-03-15T06:00:00.999648","MEAN_MOTION":15.75756061,"ECCENTRICITY":9.97e-5,"INCLINATION":53.1596,"RA_OF_ASC_NODE":34.2976,"ARG_OF_PERICENTER":60.0383,"MEAN_ANOMALY":75.3055,"EPHEMERIS_TYPE":0,"CLASSIFICATION_TYPE":"U","NORAD_CAT_ID":68040,"ELEMENT_SET_NO":999,"REV_AT_EPOCH":327,"BSTAR":-0.0051258893,"MEAN_MOTION_DOT":-0.00737891,"MEAN_MOTION_DDOT":0},{"OBJECT_NAME":"STARLINK-36825","OBJECT_ID":"2026-041B","EPOCH":"2026-03-15T06:00:00.999648","MEAN_MOTION":15.80800236,"ECCENTRICITY":0.00017087,"INCLINATION":53.1592,"RA_OF_ASC_NODE":34.2592,"ARG_OF_PERICENTER":87.6692,"MEAN_ANOMALY":65.7524,"EPHEMERIS_TYPE":0,"CLASSIFICATION_TYPE":"U","NORAD_CAT_ID":68041,"ELEMENT_SET_NO":999,"REV_AT_EPOCH":327,"BSTAR":0.00085681319,"MEAN_MOTION_DOT":0.00171228,"MEAN_MOTION_DDOT":0},{"OBJECT_NAME":"STARLINK-36925","OBJECT_ID":"2026-041C","EPOCH":"2026-03-15T06:00:00.999648","MEAN_MOTION":15.75205558,"ECCENTRICITY":0.00012588,"INCLINATION":53.1595,"RA_OF_ASC_NODE":34.3002,"ARG_OF_PERICENTER":86.1845,"MEAN_ANOMALY":47.5873,"EPHEMERIS_TYPE":0,"CLASSIFICATION_TYPE":"U","NORAD_CAT_ID":68042,"ELEMENT_SET_NO":999,"REV_AT_EPOCH":327,"BSTAR":0.00027018642,"MEAN_MOTION_DOT":0.00040917,"MEAN_MOTION_DDOT":0},{"OBJECT_NAME":"STARLINK-36902","OBJECT_ID":"2026-041D","EPOCH":"2026-03-15T06:00:00.999648","MEAN_MOTION":15.80841689,"ECCENTRICITY":0.00016158,"INCLINATION":53.1591,"RA_OF_ASC_NODE":34.252,"ARG_OF_PERICENTER":53.3339,"MEAN_ANOMALY":104.3605,"EPHEMERIS_TYPE":0,"CLASSIFICATION_TYPE":"U","NORAD_CAT_ID":68043,"ELEMENT_SET_NO":999,"REV_AT_EPOCH":327,"BSTAR":0.00050290714,"MEAN_MOTION_DOT":0.00099567,"MEAN_MOTION_DDOT":0},{"OBJECT_NAME":"STARLINK-36966","OBJECT_ID":"2026-041E","EPOCH":"2026-03-15T06:00:00.999648","MEAN_MOTION":15.76539531,"ECCENTRICITY":0.00012863,"INCLINATION":53.1596,"RA_OF_ASC_NODE":34.2493,"ARG_OF_PERICENTER":77.6547,"MEAN_ANOMALY":81.0221,"EPHEMERIS_TYPE":0,"CLASSIFICATION_TYPE":"U","NORAD_CAT_ID":68044,"ELEMENT_SET_NO":999,"REV_AT_EPOCH":327,"BSTAR":-0.011237841,"MEAN_MOTION_DOT":-0.01623362,"MEAN_MOTION_DDOT":0},{"OBJECT_NAME":"STARLINK-36864","OBJECT_ID":"2026-041F","EPOCH":"2026-03-15T06:00:00.999648","MEAN_MOTION":15.77949055,"ECCENTRICITY":0.00013197,"INCLINATION":53.1594,"RA_OF_ASC_NODE":34.2503,"ARG_OF_PERICENTER":95.4228,"MEAN_ANOMALY":62.8482,"EPHEMERIS_TYPE":0,"CLASSIFICATION_TYPE":"U","NORAD_CAT_ID":68045,"ELEMENT_SET_NO":999,"REV_AT_EPOCH":327,"BSTAR":-0.01293149,"MEAN_MOTION_DOT":-0.01941333,"MEAN_MOTION_DDOT":0},{"OBJECT_NAME":"STARLINK-36321","OBJECT_ID":"2026-041G","EPOCH":"2026-03-15T06:00:00.999648","MEAN_MOTION":15.80813384,"ECCENTRICITY":9.522e-5,"INCLINATION":53.1593,"RA_OF_ASC_NODE":34.2166,"ARG_OF_PERICENTER":64.8886,"MEAN_ANOMALY":109.9415,"EPHEMERIS_TYPE":0,"CLASSIFICATION_TYPE":"U","NORAD_CAT_ID":68046,"ELEMENT_SET_NO":999,"REV_AT_EPOCH":327,"BSTAR":0.00059604807,"MEAN_MOTION_DOT":0.00118237,"MEAN_MOTION_DDOT":0},{"OBJECT_NAME":"STARLINK-36181","OBJECT_ID":"2026-041H","EPOCH":"2026-03-15T06:00:00.999648","MEAN_MOTION":15.80833157,"ECCENTRICITY":0.00016416,"INCLINATION":53.1592,"RA_OF_ASC_NODE":34.2249,"ARG_OF_PERICENTER":116.8025,"MEAN_ANOMALY":53.7082,"EPHEMERIS_TYPE":0,"CLASSIFICATION_TYPE":"U","NORAD_CAT_ID":68047,"ELEMENT_SET_NO":999,"REV_AT_EPOCH":315,"BSTAR":0.00066348457,"MEAN_MOTION_DOT":0.0013203,"MEAN_MOTION_DDOT":0},{"OBJECT_NAME":"STARLINK-36318","OBJECT_ID":"2026-041J","EPOCH":"2026-03-15T06:00:00.999648","MEAN_MOTION":15.79353662,"ECCENTRICITY":8.766e-5,"INCLINATION":53.1594,"RA_OF_ASC_NODE":34.2093,"ARG_OF_PERICENTER":98.522,"MEAN_ANOMALY":79.534,"EPHEMERIS_TYPE":0,"CLASSIFICATION_TYPE":"U","NORAD_CAT_ID":68048,"ELEMENT_SET_NO":999,"REV_AT_EPOCH":327,"BSTAR":-0.011993706,"MEAN_MOTION_DOT":-0.01922411,"MEAN_MOTION_DDOT":0},{"OBJECT_NAME":"STARLINK-36885","OBJECT_ID":"2026-041K","EPOCH":"2026-03-15T06:00:00.999648","MEAN_MOTION":15.77950591,"ECCENTRICITY":0.00010964,"INCLINATION":53.1596,"RA_OF_ASC_NODE":34.1971,"ARG_OF_PERICENTER":98.0144,"MEAN_ANOMALY":85.9612,"EPHEMERIS_TYPE":0,"CLASSIFICATION_TYPE":"U","NORAD_CAT_ID":68049,"ELEMENT_SET_NO":999,"REV_AT_EPOCH":327,"BSTAR":-0.01263228,"MEAN_MOTION_DOT":-0.01902306,"MEAN_MOTION_DDOT":0},{"OBJECT_NAME":"STARLINK-36945","OBJECT_ID":"2026-041L","EPOCH":"2026-03-15T06:00:00.999648","MEAN_MOTION":15.80804229,"ECCENTRICITY":0.00015314,"INCLINATION":53.1594,"RA_OF_ASC_NODE":34.1983,"ARG_OF_PERICENTER":55.8288,"MEAN_ANOMALY":127.5049,"EPHEMERIS_TYPE":0,"CLASSIFICATION_TYPE":"U","NORAD_CAT_ID":68050,"ELEMENT_SET_NO":999,"REV_AT_EPOCH":327,"BSTAR":0.00077715627,"MEAN_MOTION_DOT":0.00154977,"MEAN_MOTION_DDOT":0},{"OBJECT_NAME":"STARLINK-35911","OBJECT_ID":"2026-041M","EPOCH":"2026-03-15T06:00:00.999648","MEAN_MOTION":15.80814537,"ECCENTRICITY":0.00019346,"INCLINATION":53.1595,"RA_OF_ASC_NODE":34.181,"ARG_OF_PERICENTER":51.2011,"MEAN_ANOMALY":140.6748,"EPHEMERIS_TYPE":0,"CLASSIFICATION_TYPE":"U","NORAD_CAT_ID":68051,"ELEMENT_SET_NO":999,"REV_AT_EPOCH":323,"BSTAR":0.00060012875,"MEAN_MOTION_DOT":0.00119075,"MEAN_MOTION_DDOT":0}]
