STARLINK-36906          
1 68036U 26040X   26074.25001157 -.01560731  69223-3 -45769-2 0  9998
2 68036  97.2763  22.9274 0001414 105.0518  34.4658 15.92815929  3313
STARLINK-36388          
1 68037U 26040Y   26074.25001157 -.01573165  70307-3 -45942-2 0  9992
2 68037  97.2777  22.9319 0001423 107.5486  41.0142 15.92898252  3277
STARLINK-36895          
1 68038U 26040Z   26074.25001157 -.01554095  68643-3 -45693-2 0  9997
2 68038  97.2747  22.9243 0001340 108.4634  26.8693 15.92764948  3315
STARLINK-36373          
1 68039U 26040AA  26074.25001157 -.01548238  68145-3 -45584-2 0  9996
2 68039  97.2745  22.9228 0001326 104.0972  26.5463 15.92737745  3270
STARLINK-36711          
1 68040U 26041A   26074.25001157 -.00737891  00000+0 -51259-2 0  9991
2 68040  53.1596  34.2976 0000997  60.0383  75.3055 15.75756061  3275
STARLINK-36825          
1 68041U 26041B   26074.25001157  .00171228  00000+0  85681-3 0  9993
2 68041  53.1592  34.2592 0001708  87.6692  65.7524 15.80800236  3279
STARLINK-36925          
1 68042U 26041C   26074.25001157  .00040917  00000+0  27019-3 0  9995
2 68042  53.1595  34.3002 0001258  86.1845  47.5873 15.75205558  3279
STARLINK-36902          
1 68043U 26041D   26074.25001157  .00099567  00000+0  50291-3 0  9999
2 68043  53.1591  34.2520 0001615  53.3339 104.3605 15.80841689  3273
STARLINK-36966          
1 68044U 26041E   26074.25001157 -.01623362  00000+0 -11238-1 0  9995
2 68044  53.1596  34.2493 0001286  77.6547  81.0221 15.76539531  3272
STARLINK-36864          
1 68045U 26041F   26074.25001157 -.01941333  00000+0 -12931-1 0  9998
2 68045  53.1594  34.2503 0001319  95.4228  62.8482 15.77949055  3277
STARLINK-36321          
1 68046U 26041G   26074.25001157  .00118237  00000+0  59605-3 0  9996
2 68046  53.1593  34.2166 0000952  64.8886 109.9415 15.80813384  3272
STARLINK-36181          
1 68047U 26041H   26074.25001157  .00132030  00000+0  66348-3 0  9996
2 68047  53.1592  34.2249 0001641 116.8025  53.7082 15.80833157  3156
STARLINK-36318          
1 68048U 26041J   26074.25001157 -.01922411  00000+0 -11994-1 0  9995
2 68048  53.1594  34.2093 0000876  98.5220  79.5340 15.79353662  3270
STARLINK-36885          
1 68049U 26041K   26074.25001157 -.01902306  00000+0 -12632-1 0  9997
2 68049  53.1596  34.1971 0001096  98.0144  85.9612 15.77950591  3277
STARLINK-36945          
1 68050U 26041L   26074.25001157  .00154977  00000+0  77716-3 0  9995
2 68050  53.1594  34.1983 0001531  55.8288 127.5049 15.80804229  3271
STARLINK-35911          
1 68051U 26041M   26074.25001157  .00119075  00000+0  60013-3 0  9998
2 68051  53.1595  34.1810 0001934  51.2011 140.6748 15.80814537  3234
